{
  "type": "FeatureCollection",
  "features": [
    {
      "type": "Feature",
      "properties": {
        "norad_id": 34079,
        "name": "IRIDIUM 33 DEB",
        "group": "iridium-33-debris",
        "lat": -58.11450635132472,
        "lon": -2.281024376876264,
        "alt_km": 621.7194601175688,
        "timestamp": "2025-12-23T22:42:33.370511+00:00",
        "meta_object_name": "IRIDIUM 33 DEB",
        "meta_object_id": "1997-051CN",
        "meta_epoch": "2025-12-22T08:25:01.081344",
        "meta_mean_motion": 14.83759733,
        "meta_eccentricity": 0.00044564,
        "meta_inclination": 86.3771,
        "meta_ra_of_asc_node": 4.2903,
        "meta_arg_of_pericenter": 333.0495,
        "meta_mean_anomaly": 91.7488,
        "meta_ephemeris_type": 0,
        "meta_classification_type": "U",
        "meta_norad_cat_id": 34079,
        "meta_element_set_no": 999,
        "meta_rev_at_epoch": 89120,
        "meta_bstar": 0.001875642,
        "meta_mean_motion_dot": 0.00015565,
        "meta_mean_motion_ddot": 0,
        "tle_line1": "1 34079U 97051CN  25356.35070696  .00015565  00000+0  18756-2 0  9992",
        "tle_line2": "2 34079  86.3771   4.2903 0004456 333.0495  91.7488 14.83759733891208"
      },
      "geometry": {
        "type": "Point",
        "coordinates": [
          -2.281024376876264,
          -58.11450635132472
        ]
      }
    },
    {
      "type": "Feature",
      "properties": {
        "norad_id": 34088,
        "name": "IRIDIUM 33 DEB",
        "group": "iridium-33-debris",
        "lat": -6.30281623977761,
        "lon": 25.171991270832216,
        "alt_km": 600.0375909951981,
        "timestamp": "2025-12-23T22:42:33.370522+00:00",
        "meta_object_name": "IRIDIUM 33 DEB",
        "meta_object_id": "1997-051CX",
        "meta_epoch": "2025-12-23T01:54:32.264640",
        "meta_mean_motion": 14.9182131,
        "meta_eccentricity": 0.0006827,
        "meta_inclination": 86.3834,
        "meta_ra_of_asc_node": 25.9708,
        "meta_arg_of_pericenter": 144.041,
        "meta_mean_anomaly": 238.2905,
        "meta_ephemeris_type": 0,
        "meta_classification_type": "U",
        "meta_norad_cat_id": 34088,
        "meta_element_set_no": 999,
        "meta_rev_at_epoch": 88896,
        "meta_bstar": 0.0024729077,
        "meta_mean_motion_dot": 0.00025042,
        "meta_mean_motion_ddot": 0,
        "tle_line1": "1 34088U 97051CX  25357.07954010  .00025042  00000+0  24729-2 0  9991",
        "tle_line2": "2 34088  86.3834  25.9708 0006827 144.0410 238.2905 14.91821310888963"
      },
      "geometry": {
        "type": "Point",
        "coordinates": [
          25.171991270832216,
          -6.30281623977761
        ]
      }
    },
    {
      "type": "Feature",
      "properties": {
        "norad_id": 34091,
        "name": "IRIDIUM 33 DEB",
        "group": "iridium-33-debris",
        "lat": 19.7591036336653,
        "lon": -119.61856119701538,
        "alt_km": 622.517166977148,
        "timestamp": "2025-12-23T22:42:33.370533+00:00",
        "meta_object_name": "IRIDIUM 33 DEB",
        "meta_object_id": "1997-051DA",
        "meta_epoch": "2025-12-23T04:10:02.837280",
        "meta_mean_motion": 14.82549228,
        "meta_eccentricity": 0.00342004,
        "meta_inclination": 86.3407,
        "meta_ra_of_asc_node": 62.053,
        "meta_arg_of_pericenter": 255.8557,
        "meta_mean_anomaly": 103.8864,
        "meta_ephemeris_type": 0,
        "meta_classification_type": "U",
        "meta_norad_cat_id": 34091,
        "meta_element_set_no": 999,
        "meta_rev_at_epoch": 88021,
        "meta_bstar": 0.0049422357,
        "meta_mean_motion_dot": 0.00040333,
        "meta_mean_motion_ddot": 0,
        "tle_line1": "1 34091U 97051DA  25357.17364395  .00040333  00000+0  49422-2 0  9994",
        "tle_line2": "2 34091  86.3407  62.0530 0034200 255.8557 103.8864 14.82549228880213"
      },
      "geometry": {
        "type": "Point",
        "coordinates": [
          -119.61856119701538,
          19.7591036336653
        ]
      }
    },
    {
      "type": "Feature",
      "properties": {
        "norad_id": 34097,
        "name": "IRIDIUM 33 DEB",
        "group": "iridium-33-debris",
        "lat": -60.99979875497611,
        "lon": -10.425835422952618,
        "alt_km": 730.4923933320542,
        "timestamp": "2025-12-23T22:42:33.370543+00:00",
        "meta_object_name": "IRIDIUM 33 DEB",
        "meta_object_id": "1997-051DG",
        "meta_epoch": "2025-12-22T10:10:07.648896",
        "meta_mean_motion": 14.34850685,
        "meta_eccentricity": 0.00816282,
        "meta_inclination": 86.1999,
        "meta_ra_of_asc_node": 357.1326,
        "meta_arg_of_pericenter": 330.4879,
        "meta_mean_anomaly": 29.172,
        "meta_ephemeris_type": 0,
        "meta_classification_type": "U",
        "meta_norad_cat_id": 34097,
        "meta_element_set_no": 999,
        "meta_rev_at_epoch": 87258,
        "meta_bstar": 0.0014468202,
        "meta_mean_motion_dot": 4.282e-05,
        "meta_mean_motion_ddot": 0,
        "tle_line1": "1 34097U 97051DG  25356.42369964  .00004282  00000+0  14468-2 0  9999",
        "tle_line2": "2 34097  86.1999 357.1326 0081628 330.4879  29.1720 14.34850685872588"
      },
      "geometry": {
        "type": "Point",
        "coordinates": [
          -10.425835422952618,
          -60.99979875497611
        ]
      }
    },
    {
      "type": "Feature",
      "properties": {
        "norad_id": 34145,
        "name": "IRIDIUM 33 DEB",
        "group": "iridium-33-debris",
        "lat": 28.280843817705716,
        "lon": 145.49278096792847,
        "alt_km": 751.6548816968107,
        "timestamp": "2025-12-23T22:42:33.370553+00:00",
        "meta_object_name": "IRIDIUM 33 DEB",
        "meta_object_id": "1997-051DY",
        "meta_epoch": "2025-12-23T05:21:52.043328",
        "meta_mean_motion": 14.4235986,
        "meta_eccentricity": 0.00556029,
        "meta_inclination": 86.2126,
        "meta_ra_of_asc_node": 327.8569,
        "meta_arg_of_pericenter": 60.5255,
        "meta_mean_anomaly": 300.1476,
        "meta_ephemeris_type": 0,
        "meta_classification_type": "U",
        "meta_norad_cat_id": 34145,
        "meta_element_set_no": 999,
        "meta_rev_at_epoch": 87789,
        "meta_bstar": 0.0011656692,
        "meta_mean_motion_dot": 3.943e-05,
        "meta_mean_motion_ddot": 0,
        "tle_line1": "1 34145U 97051DY  25357.22351902  .00003943  00000+0  11657-2 0  9995",
        "tle_line2": "2 34145  86.2126 327.8569 0055602  60.5255 300.1476 14.42359860877897"
      },
      "geometry": {
        "type": "Point",
        "coordinates": [
          145.49278096792847,
          28.280843817705716
        ]
      }
    },
    {
      "type": "Feature",
      "properties": {
        "norad_id": 34146,
        "name": "IRIDIUM 33 DEB",
        "group": "iridium-33-debris",
        "lat": 60.229160502653215,
        "lon": -8.62678057596173,
        "alt_km": 732.9157183464222,
        "timestamp": "2025-12-23T22:42:33.370564+00:00",
        "meta_object_name": "IRIDIUM 33 DEB",
        "meta_object_id": "1997-051DZ",
        "meta_epoch": "2025-12-23T05:55:17.173920",
        "meta_mean_motion": 14.49112641,
        "meta_eccentricity": 0.00266651,
        "meta_inclination": 86.2838,
        "meta_ra_of_asc_node": 345.1581,
        "meta_arg_of_pericenter": 185.2875,
        "meta_mean_anomaly": 188.6764,
        "meta_ephemeris_type": 0,
        "meta_classification_type": "U",
        "meta_norad_cat_id": 34146,
        "meta_element_set_no": 999,
        "meta_rev_at_epoch": 88259,
        "meta_bstar": 0.00083812732,
        "meta_mean_motion_dot": 3.219e-05,
        "meta_mean_motion_ddot": 0,
        "tle_line1": "1 34146U 97051DZ  25357.24672655  .00003219  00000+0  83813-3 0  9999",
        "tle_line2": "2 34146  86.2838 345.1581 0026665 185.2875 188.6764 14.49112641882598"
      },
      "geometry": {
        "type": "Point",
        "coordinates": [
          -8.62678057596173,
          60.229160502653215
        ]
      }
    },
    {
      "type": "Feature",
      "properties": {
        "norad_id": 34159,
        "name": "IRIDIUM 33 DEB",
        "group": "iridium-33-debris",
        "lat": 69.12345480326364,
        "lon": 53.09850921272583,
        "alt_km": 775.4256908072293,
        "timestamp": "2025-12-23T22:42:33.370574+00:00",
        "meta_object_name": "IRIDIUM 33 DEB",
        "meta_object_id": "1997-051EN",
        "meta_epoch": "2025-12-23T04:01:20.911296",
        "meta_mean_motion": 14.38517801,
        "meta_eccentricity": 0.00261189,
        "meta_inclination": 86.3495,
        "meta_ra_of_asc_node": 43.7945,
        "meta_arg_of_pericenter": 250.9907,
        "meta_mean_anomaly": 108.8461,
        "meta_ephemeris_type": 0,
        "meta_classification_type": "U",
        "meta_norad_cat_id": 34159,
        "meta_element_set_no": 999,
        "meta_rev_at_epoch": 88109,
        "meta_bstar": 0.00035267633,
        "meta_mean_motion_dot": 1.101e-05,
        "meta_mean_motion_ddot": 0,
        "tle_line1": "1 34159U 97051EN  25357.16760314  .00001101  00000+0  35268-3 0  9993",
        "tle_line2": "2 34159  86.3495  43.7945 0026118 250.9907 108.8461 14.38517801881093"
      },
      "geometry": {
        "type": "Point",
        "coordinates": [
          53.09850921272583,
          69.12345480326364
        ]
      }
    }
  ]
}